0 SECOR 1B
1 00729U 64001C   13282.12035831 -.00000013  00000-0  30119-4 0  5122
2 00729 069.8999 148.8514 0016776 259.9398 272.0293 13.94734894531010
0 SECOR 1B
1 00729U 64001C   13284.05483565  .00000029  00000-0  61891-4 0  5135
2 00729 069.8996 144.7051 0016684 257.7988 264.7946 13.94734775531287
0 SECOR 1B
1 00729U 64001C   13286.13075793  .00000012  00000-0  48788-4 0  5150
2 00729 069.8993 140.2554 0016652 255.6224 247.6118 13.94735176531577
0 SECOR 1B
1 00729U 64001C   13287.13371825  .00000000  00000-0  40367-4 0  5169
2 00729 069.8992 138.1054 0016635 254.5485 243.3102 13.94735406531713
0 SECOR 1B
1 00729U 64001C   13288.13785942  .00000014  00000-0  50459-4 0  5178
2 00729 069.8990 135.9529 0016627 253.4658 244.9472 13.94735788531859
0 SECOR 1B
1 00729U 64001C   13289.77506201 -.00000017  00000-0  27616-4 0  5182
2 00729 069.8990 132.4434 0016586 251.6552 185.1355 13.94736000532083
0 SECOR 1B
1 00729U 64001C   13291.07901706 -.00000030  00000-0  17883-4 0  5198
2 00729 069.8991 129.6484 0016551 250.2930 252.0496 13.94736188532261
0 SECOR 1B
1 00729U 64001C   13292.48788162 -.00000026  00000-0  20970-4 0  5201
2 00729 069.8994 126.6283 0016501 248.7424 125.7742 13.94736332532466
0 SECOR 1B
1 00729U 64001C   13293.49392752 -.00000005  00000-0  36484-4 0  5214
2 00729 069.8996 124.4719 0016467 247.6114 137.0244 13.94736362532605
0 SECOR 1B
1 00729U 64001C   13294.79757398  .00000024  00000-0  57624-4 0  5229
2 00729 069.8996 121.6774 0016432 246.2134 202.4306 13.94736269532785
0 SECOR 1B
1 00729U 64001C   13295.87559267  .00000035  00000-0  66337-4 0  5238
2 00729 069.8996 119.3666 0016388 245.0784 214.9725 13.94736281532931
